ONEWEB-0171             
1 48070U 21025AE  25177.04038833  .00000369  00000+0  97447-3 0  9991
2 48070  87.8961  31.0199 0001910  85.9435 274.1912 13.13469531206862
ONEWEB-0172             
1 48071U 21025AF  25176.33447274 -.00000026  00000+0 -10602-3 0  9996
2 48071  87.8958  31.1265 0001996  84.9531 275.1826 13.13471058207665
ONEWEB-0174             
1 48072U 21025AG  25177.30615694 -.00000223  00000+0 -64548-3 0  9995
2 48072  87.8962  30.9470 0001757  80.9641 279.1687 13.13469724207115
ONEWEB-0175             
1 48073U 21025AH  25177.33662926  .00000178  00000+0  45262-3 0  9998
2 48073  87.8954  30.9077 0002088  91.7647 268.3722 13.13469998206778
ONEWEB-0177             
1 48074U 21025AJ  25177.04376611  .00000354  00000+0  93333-3 0  9998
2 48074  87.8955  30.9796 0001930  77.9437 282.1908 13.13469942206922
ONEWEB-0178             
1 48075U 21025AK  25177.29106473  .00000073  00000+0  16554-3 0  9991
2 48075  87.8964  30.9747 0002105  83.9451 276.1918 13.13468674207002
ONEWEB-0108             
1 48076U 21025AL  25177.55499826 -.00000133  00000+0 -40024-3 0  9996
2 48076  87.8956  30.8728 0001538  85.8742 274.2562 13.13469675206976
ONEWEB-0169             
1 48077U 21025AM  25176.82538124  .00000275  00000+0  71772-3 0  9990
2 48077  87.8959  31.0381 0001556  85.2759 274.8548 13.13470461205525
